{
  "type": "FeatureCollection",
  "features": [
    {
      "type": "Feature",
      "properties": {
        "norad_id": 59600,
        "name": "GSAT0227 (GALILEO 30)",
        "group": "galileo",
        "lat": 40.09948464109178,
        "lon": -109.69702348969544,
        "alt_km": 23207.664627524697,
        "timestamp": "2025-12-07T09:35:10.053715+00:00",
        "meta_object_name": "GSAT0227 (GALILEO 30)",
        "meta_object_id": "2024-079C",
        "meta_epoch": "2025-12-06T14:29:58.537536",
        "meta_mean_motion": 1.70474646,
        "meta_eccentricity": 0.00033412,
        "meta_inclination": 54.9931,
        "meta_ra_of_asc_node": 106.4659,
        "meta_arg_of_pericenter": 113.7646,
        "meta_mean_anomaly": 246.2238,
        "meta_ephemeris_type": 0,
        "meta_classification_type": "U",
        "meta_norad_cat_id": 59600,
        "meta_element_set_no": 999,
        "meta_rev_at_epoch": 1008,
        "meta_bstar": 0,
        "meta_mean_motion_dot": 6e-08,
        "meta_mean_motion_ddot": 0,
        "tle_line1": "1 59600U 24079C   25340.60414974  .00000006  00000+0  00000+0 0  9995",
        "tle_line2": "2 59600  54.9931 106.4659 0003341 113.7646 246.2238  1.70474646 10088"
      },
      "geometry": {
        "type": "Point",
        "coordinates": [
          -109.69702348969544,
          40.09948464109178
        ]
      }
    },
    {
      "type": "Feature",
      "properties": {
        "norad_id": 61182,
        "name": "GSAT0232 (GALILEO 32)",
        "group": "galileo",
        "lat": -29.967296181480116,
        "lon": -156.98851653667887,
        "alt_km": 23228.205431909562,
        "timestamp": "2025-12-07T09:35:10.053727+00:00",
        "meta_object_name": "GSAT0232 (GALILEO 32)",
        "meta_object_id": "2024-167A",
        "meta_epoch": "2025-12-04T05:35:38.594112",
        "meta_mean_motion": 1.70473104,
        "meta_eccentricity": 0.00021975,
        "meta_inclination": 55.2442,
        "meta_ra_of_asc_node": 226.6647,
        "meta_arg_of_pericenter": 213.7297,
        "meta_mean_anomaly": 325.6534,
        "meta_ephemeris_type": 0,
        "meta_classification_type": "U",
        "meta_norad_cat_id": 61182,
        "meta_element_set_no": 999,
        "meta_rev_at_epoch": 755,
        "meta_bstar": 0,
        "meta_mean_motion_dot": 4.1e-07,
        "meta_mean_motion_ddot": 0,
        "tle_line1": "1 61182U 24167A   25338.23308558  .00000041  00000+0  00000+0 0  9996",
        "tle_line2": "2 61182  55.2442 226.6647 0002197 213.7297 325.6534  1.70473104  7557"
      },
      "geometry": {
        "type": "Point",
        "coordinates": [
          -156.98851653667887,
          -29.967296181480116
        ]
      }
    },
    {
      "type": "Feature",
      "properties": {
        "norad_id": 61183,
        "name": "GSAT0226 (GALILEO 31)",
        "group": "galileo",
        "lat": 52.59819131970246,
        "lon": -68.27665303587068,
        "alt_km": 23214.659206259614,
        "timestamp": "2025-12-07T09:35:10.053738+00:00",
        "meta_object_name": "GSAT0226 (GALILEO 31)",
        "meta_object_id": "2024-167B",
        "meta_epoch": "2025-12-06T09:26:36.340224",
        "meta_mean_motion": 1.70473292,
        "meta_eccentricity": 7.913e-05,
        "meta_inclination": 55.2417,
        "meta_ra_of_asc_node": 226.6105,
        "meta_arg_of_pericenter": 126.2936,
        "meta_mean_anomaly": 51.6212,
        "meta_ephemeris_type": 0,
        "meta_classification_type": "U",
        "meta_norad_cat_id": 61183,
        "meta_element_set_no": 999,
        "meta_rev_at_epoch": 756,
        "meta_bstar": 0,
        "meta_mean_motion_dot": 3.3e-07,
        "meta_mean_motion_ddot": 0,
        "tle_line1": "1 61183U 24167B   25340.39347616  .00000033  00000+0  00000+0 0  9996",
        "tle_line2": "2 61183  55.2417 226.6105 0000791 126.2936  51.6212  1.70473292  7563"
      },
      "geometry": {
        "type": "Point",
        "coordinates": [
          -68.27665303587068,
          52.59819131970246
        ]
      }
    }
  ]
}